     2.10           G: GLONASS NAV DATA                     RINEX VERSION / TYPE
teqc  2011Oct11     IGN-E               20181014 01:04:51UTCPGM / RUN BY / DATE
Linux 2.4.21-27.ELsmp|Opteron|gcc -static|Linux x86_64|=+   COMMENT
                                                            END OF HEADER
19 18 10 14  0 15  0.0-6.060861051083D-05-0.000000000000D+00 0.000000000000D+00
    2.353062011719D+04 1.040252685547D+00 1.862645149231D-09 0.000000000000D+00
    6.344117187500D+03 1.995506286621D-01 9.313225746155D-10 3.000000000000D+00
   -7.553370605469D+03 3.408316612244D+00 1.862645149231D-09 0.000000000000D+00
 9 18 10 14  0 15  0.0 3.333110362291D-05 2.728484105319D-12 0.000000000000D+00
    5.692623046875D+03 2.194862365723D-01 0.000000000000D+00 0.000000000000D+00
   -1.834837744141D+04 2.289334297180D+00 9.313225746155D-10-2.000000000000D+00
    1.683854882812D+04 2.416584968567D+00-1.862645149231D-09 0.000000000000D+00
16 18 10 14  0 15  0.0 1.038778573275D-04 0.000000000000D+00 0.000000000000D+00
    1.127778027344D+04 5.152750015259D-01 1.862645149231D-09 0.000000000000D+00
    1.304420898438D+03 3.086352348328D+00 1.862645149231D-09-1.000000000000D+00
    2.283622265625D+04-4.205112457275D-01-9.313225746155D-10 0.000000000000D+00
18 18 10 14  0 15  0.0 2.603791654110D-05 0.000000000000D+00 0.000000000000D+00
    1.978157812500D+04-1.166227340698D+00 2.793967723846D-09 0.000000000000D+00
    1.276936035156D+04-6.855039596558D-01 1.862645149231D-09-3.000000000000D+00
    9.761880859375D+03 3.267870903015D+00 9.313225746155D-10 0.000000000000D+00
 8 18 10 14  0 15  0.0 2.095848321915D-05 0.000000000000D+00 6.300000000000D+02
   -9.970179687500D+03 2.450447082520D+00 0.000000000000D+00 0.000000000000D+00
   -5.946599609375D+03-1.904284477234D+00 0.000000000000D+00 6.000000000000D+00
    2.275989355469D+04 5.765590667725D-01-2.793967723846D-09 0.000000000000D+00
15 18 10 14  0 45  0.0-1.761130988598D-05 0.000000000000D+00 1.800000000000D+03
    9.006912597656D+03 3.956270217896D-01 1.862645149231D-09 0.000000000000D+00
    2.326716357422D+04 6.773138046265D-01 0.000000000000D+00 0.000000000000D+00
    5.558035156250D+03-3.477018356323D+00 9.313225746155D-10 0.000000000000D+00
 7 18 10 14  0 45  0.0-4.924461245537D-05-0.000000000000D+00 1.800000000000D+03
    8.438553710938D+03 1.332650184631D+00 0.000000000000D+00 0.000000000000D+00
   -1.890229638672D+04-1.545314788818D+00 9.313225746155D-10 5.000000000000D+00
    1.490912158203D+04-2.721920967102D+00-9.313225746155D-10 0.000000000000D+00
 8 18 10 14  0 45  0.0 2.095941454172D-05 0.000000000000D+00 1.800000000000D+03
   -5.784066894531D+03 2.162037849426D+00 0.000000000000D+00 0.000000000000D+00
   -9.720007812500D+03-2.254657745361D+00 9.313225746155D-10 6.000000000000D+00
    2.290892968750D+04-4.120426177979D-01-2.793967723846D-09 0.000000000000D+00
 6 18 10 14  0 45  0.0 1.415312290192D-04 0.000000000000D+00 1.800000000000D+03
    1.792437109375D+04-2.346439361572D-01 0.000000000000D+00 0.000000000000D+00
   -1.807140966797D+04 5.123996734619D-02 9.313225746155D-10-4.000000000000D+00
   -1.459952636719D+03-3.553233146667D+00 0.000000000000D+00 0.000000000000D+00
17 18 10 14  0 45  0.0 1.720329746604D-04 2.728484105319D-12 1.800000000000D+03
    1.464697265625D+01-3.049905776978D+00 1.862645149231D-09 0.000000000000D+00
    1.095863037109D+04-8.096370697021D-01 9.313225746155D-10 4.000000000000D+00
    2.304254150391D+04 3.829746246338D-01-9.313225746155D-10 0.000000000000D+00
19 18 10 14  0 45  0.0-6.060954183340D-05-0.000000000000D+00 1.800000000000D+03
    2.468824023438D+04 2.226305007935D-01 2.793967723846D-09 0.000000000000D+00
    6.325497070312D+03-1.842517852783D-01 9.313225746155D-10 3.000000000000D+00
   -1.205779296875D+03 3.598793029785D+00 1.862645149231D-09 0.000000000000D+00
 9 18 10 14  0 45  0.0 3.333576023579D-05 2.728484105319D-12 1.800000000000D+03
    6.489936523438D+03 6.805429458618D-01 9.313225746155D-10 0.000000000000D+00
   -1.380501074219D+04 2.713283538818D+00 9.313225746155D-10-2.000000000000D+00
    2.048427294922D+04 1.607946395874D+00-1.862645149231D-09 0.000000000000D+00
16 18 10 14  0 45  0.0 1.038797199726D-04 9.094947017729D-13 1.800000000000D+03
    1.256189160156D+04 8.903322219849D-01 2.793967723846D-09 0.000000000000D+00
    6.611670898438D+03 2.764371871948D+00 1.862645149231D-09-1.000000000000D+00
    2.120643017578D+04-1.378314971924D+00-0.000000000000D+00 0.000000000000D+00
18 18 10 14  0 45  0.0 2.603791654110D-05 0.000000000000D+00 1.800000000000D+03
    1.693998242188D+04-1.974757194519D+00 2.793967723846D-09 0.000000000000D+00
    1.150150488281D+04-6.805191040039D-01 9.313225746155D-10-3.000000000000D+00
    1.518970214844D+04 2.723875999451D+00 0.000000000000D+00 0.000000000000D+00
